#dP2024 10 14  0  0  0.00000000      96 __u+U IGS20 FIT  IAC
## 2336  86400.00000000   900.00000000 60597 0.0000000000000
+   53   G02G03G04G05G06G07G08G09G10G11G12G13G14G15G16G17G18
+        G19G20G21G22G23G24G25G26G27G28G29G30G31G32R01R02R03
+        R04R05R07R08R09R11R12R14R15R16R17R18R19R20R21R22R24
+        R25R26  0  0  0  0  0  0  0  0  0  0  0  0  0  0  0
+          0  0  0  0  0  0  0  0  0  0  0  0  0  0  0  0  0
++         6  6  6  6  6  6  6  6  6  6  6  5  6  5  6  6  6
++         5  6  6  6  6  6  6  6  6  6  7  6  7  7  6  7  6
++         7  6  6  6  7  8  6  8  7  8  7  8  8  7  5  5  7
++         6  7  0  0  0  0  0  0  0  0  0  0  0  0  0  0  0
++         0  0  0  0  0  0  0  0  0  0  0  0  0  0  0  0  0
%c M  cc GPS ccc cccc cccc cccc cccc ccccc ccccc ccccc ccccc
%c cc cc ccc ccc cccc cccc cccc cccc ccccc ccccc ccccc ccccc
%f  0.0000000  0.000000000  0.00000000000  0.000000000000000
%f  0.0000000  0.000000000  0.00000000000  0.000000000000000
%i    0    0    0    0      0      0      0      0         0
%i    0    0    0    0      0      0      0      0         0
/* INFORMATION & ANALYSIS CENTER (IAC)      ULTRA-RAPID DATA
/* S/V CLOCKS ARE ALIGNED TO GNSS TIME                      
/* G:C1WC2W R:C1PC2P E:C1XC5X C:C2IC6I J:C1CC2S             
/* PCV:IGS20_2317 OL/AL:FES2004  NONE     YN ORB:CoN CLK:CoN
*  2024 10 14 12  0  0.00000000
PG02  -8438.060086  18940.940647 -15926.953430   -337.300475
PG03   4825.893501  17823.530291 -19299.265293    569.876646
PG04   -530.880758  26450.269365   1141.014045    461.504427
PG05  11674.537092 -10249.966270  21370.605559   -189.760422
PG06  23277.217651  -3227.542310 -12415.243291    -37.852531
PG07   9566.801148  12573.458798  21904.931192    -27.795617
PG08  -6919.363125  23146.832162  10402.337176    383.977753
PG09   7543.820290  23166.293078  10403.603358    398.286423
PG10 -24067.459781 -10015.309101  -5741.937391   -158.210448
PG11  23201.240173 -12762.885462   1563.414299   -743.815967
PG12    408.859867 -17169.716238 -20553.029984   -545.059860
PG13  13240.882188 -16862.526364  15289.912818    681.398296
PG14  23354.405239  12699.806255  -2283.152876    517.325059
PG15   3579.932567 -24256.279383   9487.794242    215.622993
PG16 -16566.507524   5181.208871  19885.200389   -155.166635
PG17  13399.497862   9552.322153 -20387.229748    595.771940
PG18 -10332.212177 -11239.449536  21781.335792   -657.909570
PG19  15250.683992   -141.303775 -21869.550226    550.371374
PG20  20855.302827  -4164.250559  15889.078337    369.681768
PG21 -13312.330261  18941.419535 -11579.857137     99.784323
PG22  22930.349175   8046.669420  -9944.972482    -70.940946
PG23 -19701.388143 -16523.006246   7142.584764    341.422681
PG24   9251.575777 -19970.930697 -15025.368180   -484.791540
PG25 -13077.697869 -18899.961568 -13881.956060    499.519417
PG26 -23870.075788  -1924.636669  11719.807108     55.981330
PG27 -12653.715025  14343.046020  17947.784827    -34.546829
PG28 -22396.887702   1910.685711 -14166.388403   -445.503461
PG29  -4080.085002 -24522.056070   9135.832412   -571.317932
PG30  18756.978601   5022.029791  18383.501266   -302.592966
PG31 -24570.399373  10024.152784  -3715.139175   -223.402331
PG32 -14504.454158  -7189.582084 -20878.319846   -586.835181
PR01  13161.956997   6327.544294  20909.366800    101.004315
PR02   6868.268545 -11201.545068  21916.666261    -25.163562
PR03  -3179.351907 -23111.053977  10437.011841    109.389330
PR04 -10882.554212 -22181.498522  -6366.995467    259.226660
PR05 -12971.253407  -9504.830922 -19807.186729    139.134650
PR07   3460.898592  23213.255598  -9885.861547     92.905860
PR08  11234.239652  21884.254831   6719.840821     -6.411700
PR09 -18612.430492   5610.767672  16487.038059    214.650407
PR11  14862.793541  10941.711458  17627.755897      9.315146
PR12  25140.850285   4273.797842    -86.585657     46.013547
PR14   1825.074221 -10985.069470 -22936.457176     27.083762
PR15 -16302.354750 -10791.940947 -16360.358621     74.902454
PR16 -25132.817029  -4247.570378    -45.615456     29.940871
PR17   9469.519205 -20026.364600  12615.582935    130.675861
PR18  -3100.001559 -11868.186946  22392.615046    166.832177
PR19 -13504.237916    281.285010  21647.210103   -294.825929
PR20 -18755.611559  16286.397691   5746.921806   -120.454928
PR21 -10324.722282  20104.691819 -11855.962932   -142.689428
PR22   4117.201922  11286.078006 -22470.633257     21.100050
PR24  17943.802274 -17362.821438  -5128.608145    -75.970382
PR25  -9872.711563  19730.151575 -12817.903183    -92.020348
PR26  10805.802212  22564.487138   5031.895287     82.386600
*  2024 10 14 12 15  0.00000000
PG02 -10008.382970  19824.141140 -13837.989873   -337.293045
PG03   2836.750596  16792.000403 -20578.200350    569.887347
PG04   -783.651147  26410.497914  -1732.791475    461.510525
PG05  13832.536349  -9122.088743  20591.982222   -189.761358
PG06  21998.022005  -2335.200647 -14711.998393    -37.877320
PG07   7504.018374  13797.733108  21932.498650    -27.792259
PG08  -7264.845825  21803.195321  12808.709627    383.988251
PG09   7347.591641  24232.060058   7811.879438    398.301247
PG10 -24440.500813 -10401.789641  -2912.421574   -158.222571
PG11  23327.159385 -12552.717065  -1307.369172   -743.818629
PG12   2411.009797 -15955.676496 -21384.661749   -545.062081
PG13  13170.804853 -14951.421033  17211.339000    681.399913
PG14  23303.089506  12996.557535    525.249647    517.332628
PG15   4105.862932 -23025.062145  11915.921848    215.627289
PG16 -18382.798702   3838.308061  18613.571597   -155.157699
PG17  13190.825512  11901.859880 -19263.154165    595.760866
PG18  -8175.216231 -12491.297542  21995.023702   -657.910739
PG19  15056.852444   2323.752458 -21918.636189    550.375471
PG20  22395.466862  -3428.936526  13810.976072    369.681183
PG21 -14512.905116  19444.963103  -9019.553282     99.783501
PG22  23648.357076   8852.766560  -7312.254140    -70.943822
PG23 -18774.962530 -16228.868009   9804.483459    341.430022
PG24  10652.240842 -20685.623255 -12879.354799   -484.790456
PG25 -11537.036820 -18294.545236 -15934.020627    499.519204
PG26 -24870.851733  -2672.222986   9309.980060     55.972866
PG27 -12869.193861  12142.841703  19377.507436    -34.546950
PG28 -21036.388921    818.184624 -16211.251080   -445.515090
PG29  -3802.245218 -25406.286238   6446.383158   -571.315496
PG30  16986.700959   6247.775728  19669.712410   -302.586265
PG31 -24209.509166   9547.678210  -6458.527050   -223.401849
PG32 -14494.098254  -9565.304218 -19938.681652   -586.831194
PR01  14218.320040   8578.991590  19358.628763    101.005324
PR02   7816.665271  -8623.678225  22744.416742    -25.164050
PR03  -2775.790505 -21710.410431  13198.490131    109.389761
PR04 -11263.077609 -22671.178621  -3210.997448    259.228131
PR05 -13906.071700 -11642.902093 -17947.182150    139.135413
PR07   3070.973895  21860.346690 -12695.274961     92.906572
PR08  11613.951124  22410.383839   3578.371262     -6.411613
PR09 -20495.232886   5471.542989  14121.967429    214.651815
PR11  12604.702287  10554.229888  19521.057945      9.314693
PR12  24977.127008   4116.751241   3113.057315     46.013774
PR14   4621.276346 -10633.420149 -22709.915185     27.084326
PR15 -14183.049789 -10413.388300 -18445.402836     74.902588
PR16 -24949.764686  -4069.419229  -3255.395762     29.940745
PR17  10205.140229 -21208.497626   9785.969382    130.678608
PR18  -1448.248524 -13997.033726  21306.691987    166.833778
PR19 -11656.421200  -1735.657816  22630.106380   -294.827434
PR20 -18007.530932  15745.715734   8830.097924   -120.454658
PR21 -10995.803866  21216.735451  -8966.921357   -142.692179
PR22   2375.615966  13381.013723 -21554.657928     21.090265
PR24  17317.898565 -16804.457401  -8205.936373    -75.972268
PR25 -10696.237134  20882.617367 -10033.143085    -92.016867
PR26  11117.210829  22894.242080   1848.462632     82.413409
EOF
